{
  "type": "FeatureCollection",
  "features": [
    {
      "type": "Feature",
      "properties": {
        "block_id": "MP_BHOPAL_CITY",
        "block_name": "Bhopal (City)",
        "district": "Bhopal",
        "state": "Madhya Pradesh",
        "area_sq_km": 285,
        "center_lat": 23.2599,
        "center_lng": 77.4126
      },
      "geometry": {
        "type": "Polygon",
        "coordinates": [
          [
            [
              77.46603,
              23.26156
            ],
            [
              77.50789,
              23.30999
            ],
            [
              77.48142,
              23.3385
            ],
            [
              77.41552,
              23.32263
            ],
            [
              77.36529,
              23.34154
            ],
            [
              77.33783,
              23.30637
            ],
            [
              77.3046,
              23.27442
            ],
            [
              77.29789,
              23.23418
            ],
            [
              77.36942,
              23.23182
            ],
            [
              77.39902,
              23.21085
            ],
            [
              77.43334,
              23.17188
            ],
            [
              77.46758,
              23.19643
            ],
            [
              77.4847,
              23.23361
            ],
            [
              77.46603,
              23.26156
            ]
          ]
        ]
      }
    },
    {
      "type": "Feature",
      "properties": {
        "block_id": "MP_BERASIA_TOWN",
        "block_name": "Berasia (Town)",
        "district": "Bhopal",
        "state": "Madhya Pradesh",
        "area_sq_km": 62,
        "center_lat": 23.6283,
        "center_lng": 77.4302
      },
      "geometry": {
        "type": "Polygon",
        "coordinates": [
          [
            [
              77.4843,
              23.62806
            ],
            [
              77.47829,
              23.65446
            ],
            [
              77.45773,
              23.66438
            ],
            [
              77.43577,
              23.65886
            ],
            [
              77.40582,
              23.67186
            ],
            [
              77.39347,
              23.65891
            ],
            [
              77.40263,
              23.63127
            ],
            [
              77.38907,
              23.6241
            ],
            [
              77.41223,
              23.60912
            ],
            [
              77.41736,
              23.5983
            ],
            [
              77.43233,
              23.59957
            ],
            [
              77.4527,
              23.59044
            ],
            [
              77.46222,
              23.6075
            ],
            [
              77.4843,
              23.62806
            ]
          ]
        ]
      }
    },
    {
      "type": "Feature",
      "properties": {
        "block_id": "MP_KOLAR_SUBURBAN",
        "block_name": "Kolar (Suburban Area)",
        "district": "Bhopal",
        "state": "Madhya Pradesh",
        "area_sq_km": 118,
        "center_lat": 23.1856,
        "center_lng": 77.3516
      },
      "geometry": {
        "type": "Polygon",
        "coordinates": [
          [
            [
              77.3964,
              23.18461
            ],
            [
              77.38415,
              23.19704
            ],
            [
              77.38702,
              23.23805
            ],
            [
              77.35671,
              23.2241
            ],
            [
              77.34238,
              23.21608
            ],
            [
              77.30556,
              23.23775
            ],
            [
              77.30936,
              23.21023
            ],
            [
              77.29838,
              23.18296
            ],
            [
              77.29943,
              23.16685
            ],
            [
              77.31894,
              23.14155
            ],
            [
              77.33138,
              23.10938
            ],
            [
              77.36632,
              23.13426
            ],
            [
              77.38422,
              23.1497
            ],
            [
              77.39051,
              23.16396
            ],
            [
              77.3964,
              23.18461
            ]
          ]
        ]
      }
    },
    {
      "type": "Feature",
      "properties": {
        "block_id": "MP_INDORE_CITY",
        "block_name": "Indore (City)",
        "district": "Indore",
        "state": "Madhya Pradesh",
        "area_sq_km": 275,
        "center_lat": 22.7196,
        "center_lng": 75.8577
      },
      "geometry": {
        "type": "Polygon",
        "coordinates": [
          [
            [
              75.91392,
              22.72441
            ],
            [
              75.9449,
              22.76593
            ],
            [
              75.89491,
              22.80221
            ],
            [
              75.84198,
              22.76935
            ],
            [
              75.82176,
              22.75741
            ],
            [
              75.80045,
              22.72624
            ],
            [
              75.80456,
              22.70479
            ],
            [
              75.79766,
              22.65163
            ],
            [
              75.84647,
              22.65573
            ],
            [
              75.89551,
              22.62859
            ],
            [
              75.92197,
              22.68476
            ],
            [
              75.91392,
              22.72441
            ]
          ]
        ]
      }
    },
    {
      "type": "Feature",
      "properties": {
        "block_id": "MP_MHOW_CANTONMENT",
        "block_name": "Mhow (Cantonment Tribal Belt)",
        "district": "Indore",
        "state": "Madhya Pradesh",
        "area_sq_km": 73,
        "center_lat": 22.5514,
        "center_lng": 75.7612
      },
      "geometry": {
        "type": "Polygon",
        "coordinates": [
          [
            [
              75.82546,
              22.55475
            ],
            [
              75.80024,
              22.57111
            ],
            [
              75.77924,
              22.58424
            ],
            [
              75.74598,
              22.5893
            ],
            [
              75.7087,
              22.5861
            ],
            [
              75.71623,
              22.54826
            ],
            [
              75.71423,
              22.53009
            ],
            [
              75.73949,
              22.49734
            ],
            [
              75.77666,
              22.50307
            ],
            [
              75.78327,
              22.52999
            ],
            [
              75.82546,
              22.55475
            ]
          ]
        ]
      }
    },
    {
      "type": "Feature",
      "properties": {
        "block_id": "MP_DEPALPUR_TEHSIL",
        "block_name": "Depalpur (Tehsil)",
        "district": "Indore",
        "state": "Madhya Pradesh",
        "area_sq_km": 892,
        "center_lat": 22.8494,
        "center_lng": 75.5448
      },
      "geometry": {
        "type": "Polygon",
        "coordinates": [
          [
            [
              75.69714,
              22.8661
            ],
            [
              75.74931,
              22.95976
            ],
            [
              75.6585,
              23.0342
            ],
            [
              75.51261,
              23.01631
            ],
            [
              75.44698,
              22.98613
            ],
            [
              75.38705,
              22.87775
            ],
            [
              75.32596,
              22.80821
            ],
            [
              75.41984,
              22.69139
            ],
            [
              75.54455,
              22.70135
            ],
            [
              75.64565,
              22.69088
            ],
            [
              75.75083,
              22.76782
            ],
            [
              75.69714,
              22.8661
            ]
          ]
        ]
      }
    },
    {
      "type": "Feature",
      "properties": {
        "block_id": "MP_JABALPUR_CITY",
        "block_name": "Jabalpur (City)",
        "district": "Jabalpur",
        "state": "Madhya Pradesh",
        "area_sq_km": 160,
        "center_lat": 23.1815,
        "center_lng": 79.9864
      },
      "geometry": {
        "type": "Polygon",
        "coordinates": [
          [
            [
              80.07083,
              23.18248
            ],
            [
              80.05931,
              23.20912
            ],
            [
              80.05644,
              23.24245
            ],
            [
              80.02388,
              23.25999
            ],
            [
              79.97531,
              23.25735
            ],
            [
              79.94874,
              23.23323
            ],
            [
              79.91307,
              23.22522
            ],
            [
              79.93656,
              23.19156
            ],
            [
              79.94538,
              23.17081
            ],
            [
              79.93056,
              23.15328
            ],
            [
              79.9631,
              23.14113
            ],
            [
              79.9693,
              23.09318
            ],
            [
              80.00267,
              23.1301
            ],
            [
              80.04575,
              23.11366
            ],
            [
              80.02758,
              23.16197
            ],
            [
              80.07083,
              23.18248
            ]
          ]
        ]
      }
    },
    {
      "type": "Feature",
      "properties": {
        "block_id": "MP_SIHORA_TOWN",
        "block_name": "Sihora (Town)",
        "district": "Jabalpur",
        "state": "Madhya Pradesh",
        "area_sq_km": 24,
        "center_lat": 23.4886,
        "center_lng": 80.1072
      },
      "geometry": {
        "type": "Polygon",
        "coordinates": [
          [
            [
              80.12597,
              23.4876
            ],
            [
              80.14003,
              23.50644
            ],
            [
              80.12621,
              23.51958
            ],
            [
              80.1089,
              23.5029
            ],
            [
              80.09846,
              23.50377
            ],
            [
              80.07578,
              23.50234
            ],
            [
              80.08448,
              23.49163
            ],
            [
              80.07477,
              23.47088
            ],
            [
              80.09044,
              23.46009
            ],
            [
              80.10426,
              23.46345
            ],
            [
              80.1211,
              23.46802
            ],
            [
              80.12288,
              23.47872
            ],
            [
              80.12597,
              23.4876
            ]
          ]
        ]
      }
    },
    {
      "type": "Feature",
      "properties": {
        "block_id": "MP_PATAN_SEMIRURAL",
        "block_name": "Patan (Semi-rural Area)",
        "district": "Jabalpur",
        "state": "Madhya Pradesh",
        "area_sq_km": 594,
        "center_lat": 23.2944,
        "center_lng": 79.6857
      },
      "geometry": {
        "type": "Polygon",
        "coordinates": [
          [
            [
              79.80671,
              23.28614
            ],
            [
              79.78266,
              23.32574
            ],
            [
              79.77774,
              23.40699
            ],
            [
              79.72228,
              23.38716
            ],
            [
              79.65603,
              23.38771
            ],
            [
              79.59525,
              23.43119
            ],
            [
              79.52107,
              23.35572
            ],
            [
              79.60583,
              23.2852
            ],
            [
              79.57514,
              23.23144
            ],
            [
              79.58737,
              23.20792
            ],
            [
              79.66163,
              23.22604
            ],
            [
              79.71011,
              23.17892
            ],
            [
              79.79112,
              23.1844
            ],
            [
              79.84671,
              23.19817
            ],
            [
              79.80671,
              23.28614
            ]
          ]
        ]
      }
    },
    {
      "type": "Feature",
      "properties": {
        "block_id": "MP_MANDLA_CITY",
        "block_name": "Mandla (City)",
        "district": "Mandla",
        "state": "Madhya Pradesh",
        "area_sq_km": 128,
        "center_lat": 22.5983,
        "center_lng": 80.3756
      },
      "geometry": {
        "type": "Polygon",
        "coordinates": [
          [
            [
              80.41322,
              22.59765
            ],
            [
              80.45025,
              22.63958
            ],
            [
              80.422,
              22.6418
            ],
            [
              80.39813,
              22.66672
            ],
            [
              80.3676,
              22.63451
            ],
            [
              80.33359,
              22.658
            ],
            [
              80.31786,
              22.63031
            ],
            [
              80.28849,
              22.59254
            ],
            [
              80.30435,
              22.56395
            ],
            [
              80.34564,
              22.55236
            ],
            [
              80.36052,
              22.54095
            ],
            [
              80.38567,
              22.54799
            ],
            [
              80.40274,
              22.56658
            ],
            [
              80.43372,
              22.56329
            ],
            [
              80.41322,
              22.59765
            ]
          ]
        ]
      }
    },
    {
      "type": "Feature",
      "properties": {
        "block_id": "MP_NAINPUR_TOWN",
        "block_name": "Nainpur (Town)",
        "district": "Mandla",
        "state": "Madhya Pradesh",
        "area_sq_km": 14,
        "center_lat": 22.4261,
        "center_lng": 80.4913
      },
      "geometry": {
        "type": "Polygon",
        "coordinates": [
          [
            [
              80.50829,
              22.42634
            ],
            [
              80.51689,
              22.43742
            ],
            [
              80.50982,
              22.44277
            ],
            [
              80.49728,
              22.44698
            ],
            [
              80.48542,
              22.44312
            ],
            [
              80.48461,
              22.43539
            ],
            [
              80.46854,
              22.43685
            ],
            [
              80.46959,
              22.4272
            ],
            [
              80.46832,
              22.41585
            ],
            [
              80.48311,
              22.41476
            ],
            [
              80.4873,
              22.41394
            ],
            [
              80.49541,
              22.41179
            ],
            [
              80.50947,
              22.409
            ],
            [
              80.50452,
              22.42157
            ],
            [
              80.50829,
              22.42634
            ]
          ]
        ]
      }
    },
    {
      "type": "Feature",
      "properties": {
        "block_id": "MP_BICHHIYA_TRIBAL",
        "block_name": "Bichhiya (Forest-fringe Tribal Area)",
        "district": "Mandla",
        "state": "Madhya Pradesh",
        "area_sq_km": 1094,
        "center_lat": 22.7138,
        "center_lng": 80.1619
      },
      "geometry": {
        "type": "Polygon",
        "coordinates": [
          [
            [
              80.3901,
              22.72803
            ],
            [
              80.25659,
              22.76388
            ],
            [
              80.26976,
              22.82423
            ],
            [
              80.20977,
              22.84556
            ],
            [
              80.13666,
              22.87113
            ],
            [
              80.09663,
              22.79929
            ],
            [
              80.05256,
              22.76258
            ],
            [
              79.91657,
              22.72079
            ],
            [
              79.96636,
              22.6055
            ],
            [
              80.00228,
              22.55008
            ],
            [
              80.14103,
              22.52876
            ],
            [
              80.21146,
              22.48127
            ],
            [
              80.28351,
              22.58471
            ],
            [
              80.36465,
              22.61758
            ],
            [
              80.3901,
              22.72803
            ]
          ]
        ]
      }
    },
    {
      "type": "Feature",
      "properties": {
        "block_id": "MP_CHHINDWARA_CITY",
        "block_name": "Chhindwara (City)",
        "district": "Chhindwara",
        "state": "Madhya Pradesh",
        "area_sq_km": 108,
        "center_lat": 22.0574,
        "center_lng": 78.939
      },
      "geometry": {
        "type": "Polygon",
        "coordinates": [
          [
            [
              78.97092,
              22.05799
            ],
            [
              79.00971,
              22.09641
            ],
            [
              78.94564,
              22.0862
            ],
            [
              78.93234,
              22.10186
            ],
            [
              78.8694,
              22.09614
            ],
            [
              78.89133,
              22.05997
            ],
            [
              78.91067,
              22.04154
            ],
            [
              78.93207,
              22.0218
            ],
            [
              78.967,
              22.00963
            ],
            [
              78.98788,
              22.02925
            ],
            [
              78.97092,
              22.05799
            ]
          ]
        ]
      }
    },
    {
      "type": "Feature",
      "properties": {
        "block_id": "MP_PARASIA_TRIBAL",
        "block_name": "Parasia (Mining Tribal Belt)",
        "district": "Chhindwara",
        "state": "Madhya Pradesh",
        "area_sq_km": 39,
        "center_lat": 22.193,
        "center_lng": 78.761
      },
      "geometry": {
        "type": "Polygon",
        "coordinates": [
          [
            [
              78.78054,
              22.19486
            ],
            [
              78.79861,
              22.21352
            ],
            [
              78.77473,
              22.21188
            ],
            [
              78.76676,
              22.22315
            ],
            [
              78.75036,
              22.2362
            ],
            [
              78.74547,
              22.20762
            ],
            [
              78.71848,
              22.19709
            ],
            [
              78.72305,
              22.18923
            ],
            [
              78.74065,
              22.17331
            ],
            [
              78.75282,
              22.16201
            ],
            [
              78.76899,
              22.15038
            ],
            [
              78.7787,
              22.16873
            ],
            [
              78.78207,
              22.18046
            ],
            [
              78.78054,
              22.19486
            ]
          ]
        ]
      }
    },
    {
      "type": "Feature",
      "properties": {
        "block_id": "MP_AMARWARA_FRINGE",
        "block_name": "Amarwara (Forest-fringe Tribal Block)",
        "district": "Chhindwara",
        "state": "Madhya Pradesh",
        "area_sq_km": 888,
        "center_lat": 22.2948,
        "center_lng": 79.1601
      },
      "geometry": {
        "type": "Polygon",
        "coordinates": [
          [
            [
              79.26258,
              22.29076
            ],
            [
              79.28134,
              22.3661
            ],
            [
              79.20262,
              22.38091
            ],
            [
              79.09361,
              22.42584
            ],
            [
              79.08632,
              22.34902
            ],
            [
              78.93937,
              22.2889
            ],
            [
              79.05495,
              22.20106
            ],
            [
              79.11938,
              22.20067
            ],
            [
              79.2348,
              22.1657
            ],
            [
              79.23567,
              22.23587
            ],
            [
              79.26258,
              22.29076
            ]
          ]
        ]
      }
    },
    {
      "type": "Feature",
      "properties": {
        "block_id": "OR_BHUBANESWAR_CITY",
        "block_name": "Bhubaneswar (Capital City)",
        "district": "Khurda",
        "state": "Odisha",
        "area_sq_km": 186,
        "center_lat": 20.2961,
        "center_lng": 85.8245
      },
      "geometry": {
        "type": "Polygon",
        "coordinates": [
          [
            [
              85.91787,
              20.29134
            ],
            [
              85.89935,
              20.3395
            ],
            [
              85.86969,
              20.36348
            ],
            [
              85.81091,
              20.3792
            ],
            [
              85.77986,
              20.33963
            ],
            [
              85.77894,
              20.30175
            ],
            [
              85.74934,
              20.26823
            ],
            [
              85.78579,
              20.25224
            ],
            [
              85.82506,
              20.21198
            ],
            [
              85.86116,
              20.22491
            ],
            [
              85.90796,
              20.24977
            ],
            [
              85.91787,
              20.29134
            ]
          ]
        ]
      }
    },
    {
      "type": "Feature",
      "properties": {
        "block_id": "OR_JATNI_TOWN",
        "block_name": "Jatni (Town)",
        "district": "Khurda",
        "state": "Odisha",
        "area_sq_km": 19,
        "center_lat": 20.1656,
        "center_lng": 85.7056
      },
      "geometry": {
        "type": "Polygon",
        "coordinates": [
          [
            [
              85.73289,
              20.16714
            ],
            [
              85.71993,
              20.17472
            ],
            [
              85.71297,
              20.18287
            ],
            [
              85.70312,
              20.19663
            ],
            [
              85.69886,
              20.18151
            ],
            [
              85.68544,
              20.17307
            ],
            [
              85.68924,
              20.16476
            ],
            [
              85.6851,
              20.15083
            ],
            [
              85.68671,
              20.13887
            ],
            [
              85.7019,
              20.13977
            ],
            [
              85.71491,
              20.15318
            ],
            [
              85.71966,
              20.15845
            ],
            [
              85.73289,
              20.16714
            ]
          ]
        ]
      }
    },
    {
      "type": "Feature",
      "properties": {
        "block_id": "OR_PIPILI_SEMIURBAN",
        "block_name": "Pipili (Semi-urban)",
        "district": "Khurda",
        "state": "Odisha",
        "area_sq_km": 15,
        "center_lat": 20.1012,
        "center_lng": 85.6174
      },
      "geometry": {
        "type": "Polygon",
        "coordinates": [
          [
            [
              85.64163,
              20.09986
            ],
            [
              85.63289,
              20.11047
            ],
            [
              85.62882,
              20.11574
            ],
            [
              85.62434,
              20.12748
            ],
            [
              85.61244,
              20.11412
            ],
            [
              85.60065,
              20.11507
            ],
            [
              85.59214,
              20.1074
            ],
            [
              85.58889,
              20.09244
            ],
            [
              85.59799,
              20.08616
            ],
            [
              85.61146,
              20.07822
            ],
            [
              85.61926,
              20.07899
            ],
            [
              85.62517,
              20.09245
            ],
            [
              85.63486,
              20.09303
            ],
            [
              85.64163,
              20.09986
            ]
          ]
        ]
      }
    },
    {
      "type": "Feature",
      "properties": {
        "block_id": "OR_CUTTACK_CITY",
        "block_name": "Cuttack (City)",
        "district": "Cuttack",
        "state": "Odisha",
        "area_sq_km": 192,
        "center_lat": 20.4625,
        "center_lng": 85.883
      },
      "geometry": {
        "type": "Polygon",
        "coordinates": [
          [
            [
              85.95666,
              20.47182
            ],
            [
              85.9782,
              20.50384
            ],
            [
              85.90902,
              20.51103
            ],
            [
              85.88756,
              20.56253
            ],
            [
              85.85642,
              20.51587
            ],
            [
              85.80055,
              20.49847
            ],
            [
              85.83354,
              20.46724
            ],
            [
              85.81722,
              20.43802
            ],
            [
              85.84782,
              20.38736
            ],
            [
              85.88116,
              20.38217
            ],
            [
              85.90405,
              20.41269
            ],
            [
              85.92131,
              20.43409
            ],
            [
              85.95666,
              20.47182
            ]
          ]
        ]
      }
    },
    {
      "type": "Feature",
      "properties": {
        "block_id": "OR_CHOUDWAR_TOWN",
        "block_name": "Choudwar (Town)",
        "district": "Cuttack",
        "state": "Odisha",
        "area_sq_km": 10,
        "center_lat": 20.4867,
        "center_lng": 85.8517
      },
      "geometry": {
        "type": "Polygon",
        "coordinates": [
          [
            [
              85.87471,
              20.48539
            ],
            [
              85.86531,
              20.49234
            ],
            [
              85.86579,
              20.50352
            ],
            [
              85.85221,
              20.50547
            ],
            [
              85.84623,
              20.49785
            ],
            [
              85.83087,
              20.49814
            ],
            [
              85.82768,
              20.48389
            ],
            [
              85.84152,
              20.47974
            ],
            [
              85.84093,
              20.46801
            ],
            [
              85.85199,
              20.4635
            ],
            [
              85.8588,
              20.47117
            ],
            [
              85.86728,
              20.47583
            ],
            [
              85.87471,
              20.48539
            ]
          ]
        ]
      }
    },
    {
      "type": "Feature",
      "properties": {
        "block_id": "OR_ATHAGARH_TRIBAL",
        "block_name": "Athagarh (Tribal-fringe Area)",
        "district": "Cuttack",
        "state": "Odisha",
        "area_sq_km": 346,
        "center_lat": 20.5301,
        "center_lng": 85.6255
      },
      "geometry": {
        "type": "Polygon",
        "coordinates": [
          [
            [
              85.69065,
              20.53024
            ],
            [
              85.74094,
              20.57153
            ],
            [
              85.69704,
              20.60398
            ],
            [
              85.63471,
              20.61447
            ],
            [
              85.58411,
              20.63415
            ],
            [
              85.56973,
              20.58363
            ],
            [
              85.55006,
              20.56845
            ],
            [
              85.52538,
              20.5332
            ],
            [
              85.51414,
              20.46554
            ],
            [
              85.56578,
              20.46461
            ],
            [
              85.59047,
              20.43946
            ],
            [
              85.63912,
              20.47632
            ],
            [
              85.67708,
              20.46937
            ],
            [
              85.71046,
              20.48059
            ],
            [
              85.69065,
              20.53024
            ]
          ]
        ]
      }
    },
    {
      "type": "Feature",
      "properties": {
        "block_id": "OR_KORAPUT_TOWN",
        "block_name": "Koraput (Town)",
        "district": "Koraput",
        "state": "Odisha",
        "area_sq_km": 19,
        "center_lat": 18.8135,
        "center_lng": 82.7094
      },
      "geometry": {
        "type": "Polygon",
        "coordinates": [
          [
            [
              82.74182,
              18.81366
            ],
            [
              82.72131,
              18.81858
            ],
            [
              82.72333,
              18.82694
            ],
            [
              82.71566,
              18.83438
            ],
            [
              82.7084,
              18.82916
            ],
            [
              82.69656,
              18.83649
            ],
            [
              82.68837,
              18.82543
            ],
            [
              82.68382,
              18.82043
            ],
            [
              82.68612,
              18.80664
            ],
            [
              82.6894,
              18.7976
            ],
            [
              82.69786,
              18.79251
            ],
            [
              82.70953,
              18.79829
            ],
            [
              82.71888,
              18.79259
            ],
            [
              82.72526,
              18.79499
            ],
            [
              82.73045,
              18.80729
            ],
            [
              82.74182,
              18.81366
            ]
          ]
        ]
      }
    },
    {
      "type": "Feature",
      "properties": {
        "block_id": "OR_JEYPORE_URBAN",
        "block_name": "Jeypore (Urban Tribal Cluster)",
        "district": "Koraput",
        "state": "Odisha",
        "area_sq_km": 39,
        "center_lat": 18.8527,
        "center_lng": 82.5712
      },
      "geometry": {
        "type": "Polygon",
        "coordinates": [
          [
            [
              82.61015,
              18.85551
            ],
            [
              82.59452,
              18.86981
            ],
            [
              82.57845,
              18.88493
            ],
            [
              82.56568,
              18.87313
            ],
            [
              82.54445,
              18.87355
            ],
            [
              82.53879,
              18.85228
            ],
            [
              82.55316,
              18.84205
            ],
            [
              82.55141,
              18.8154
            ],
            [
              82.57966,
              18.81722
            ],
            [
              82.59786,
              18.8274
            ],
            [
              82.61015,
              18.85551
            ]
          ]
        ]
      }
    },
    {
      "type": "Feature",
      "properties": {
        "block_id": "OR_SUNABEDA_FOREST",
        "block_name": "Sunabeda (Tribal Forest Area)",
        "district": "Koraput",
        "state": "Odisha",
        "area_sq_km": 19,
        "center_lat": 18.6964,
        "center_lng": 82.8064
      },
      "geometry": {
        "type": "Polygon",
        "coordinates": [
          [
            [
              82.83626,
              18.70113
            ],
            [
              82.8183,
              18.70146
            ],
            [
              82.81165,
              18.71193
            ],
            [
              82.80592,
              18.72276
            ],
            [
              82.78813,
              18.72007
            ],
            [
              82.78463,
              18.7032
            ],
            [
              82.78783,
              18.69364
            ],
            [
              82.79435,
              18.68195
            ],
            [
              82.8003,
              18.67163
            ],
            [
              82.81485,
              18.67513
            ],
            [
              82.83152,
              18.68599
            ],
            [
              82.83626,
              18.70113
            ]
          ]
        ]
      }
    },
    {
      "type": "Feature",
      "properties": {
        "block_id": "OR_BHAWANIPATNA_HQ",
        "block_name": "Bhawanipatna (District HQ)",
        "district": "Kalahandi",
        "state": "Odisha",
        "area_sq_km": 44,
        "center_lat": 19.9072,
        "center_lng": 83.1675
      },
      "geometry": {
        "type": "Polygon",
        "coordinates": [
          [
            [
              83.19873,
              19.91082
            ],
            [
              83.20526,
              19.91887
            ],
            [
              83.19417,
              19.93275
            ],
            [
              83.1719,
              19.94891
            ],
            [
              83.15783,
              19.95165
            ],
            [
              83.14501,
              19.92878
            ],
            [
              83.13734,
              19.92164
            ],
            [
              83.13315,
              19.91097
            ],
            [
              83.1312,
              19.88562
            ],
            [
              83.13754,
              19.87441
            ],
            [
              83.16302,
              19.87113
            ],
            [
              83.1702,
              19.88752
            ],
            [
              83.18791,
              19.88627
            ],
            [
              83.20448,
              19.88528
            ],
            [
              83.19873,
              19.91082
            ]
          ]
        ]
      }
    },
    {
      "type": "Feature",
      "properties": {
        "block_id": "OR_JUNAGARH_TOWN",
        "block_name": "Junagarh (Town)",
        "district": "Kalahandi",
        "state": "Odisha",
        "area_sq_km": 10,
        "center_lat": 19.8603,
        "center_lng": 82.9388
      },
      "geometry": {
        "type": "Polygon",
        "coordinates": [
          [
            [
              82.9525,
              19.86068
            ],
            [
              82.95753,
              19.86857
            ],
            [
              82.94847,
              19.87766
            ],
            [
              82.93782,
              19.87167
            ],
            [
              82.92745,
              19.87754
            ],
            [
              82.92753,
              19.86449
            ],
            [
              82.92203,
              19.85773
            ],
            [
              82.92719,
              19.85107
            ],
            [
              82.93581,
              19.85123
            ],
            [
              82.95074,
              19.8408
            ],
            [
              82.94706,
              19.85424
            ],
            [
              82.9525,
              19.86068
            ]
          ]
        ]
      }
    },
    {
      "type": "Feature",
      "properties": {
        "block_id": "OR_KESINGA_SEMIRURAL",
        "block_name": "Kesinga (Semi-rural Tribal Belt)",
        "district": "Kalahandi",
        "state": "Odisha",
        "area_sq_km": 15,
        "center_lat": 20.1736,
        "center_lng": 83.2226
      },
      "geometry": {
        "type": "Polygon",
        "coordinates": [
          [
            [
              83.2371,
              20.17274
            ],
            [
              83.23462,
              20.18556
            ],
            [
              83.22731,
              20.19082
            ],
            [
              83.21413,
              20.19252
            ],
            [
              83.20878,
              20.18243
            ],
            [
              83.20641,
              20.17371
            ],
            [
              83.1972,
              20.16216
            ],
            [
              83.21904,
              20.15055
            ],
            [
              83.22471,
              20.16166
            ],
            [
              83.23353,
              20.16446
            ],
            [
              83.2371,
              20.17274
            ]
          ]
        ]
      }
    },
    {
      "type": "Feature",
      "properties": {
        "block_id": "OR_ROURKELA_STEEL",
        "block_name": "Rourkela (Steel City)",
        "district": "Sundargarh",
        "state": "Odisha",
        "area_sq_km": 198,
        "center_lat": 22.2604,
        "center_lng": 84.8664
      },
      "geometry": {
        "type": "Polygon",
        "coordinates": [
          [
            [
              84.92487,
              22.25209
            ],
            [
              84.9417,
              22.31216
            ],
            [
              84.9022,
              22.31988
            ],
            [
              84.84747,
              22.34795
            ],
            [
              84.79818,
              22.3379
            ],
            [
              84.76252,
              22.28336
            ],
            [
              84.78676,
              22.23116
            ],
            [
              84.80457,
              22.20561
            ],
            [
              84.85665,
              22.1642
            ],
            [
              84.90422,
              22.17863
            ],
            [
              84.90546,
              22.23253
            ],
            [
              84.92487,
              22.25209
            ]
          ]
        ]
      }
    },
    {
      "type": "Feature",
      "properties": {
        "block_id": "OR_RAJGANGPUR_MINING",
        "block_name": "Rajgangpur (Mining Tribal Region)",
        "district": "Sundargarh",
        "state": "Odisha",
        "area_sq_km": 49,
        "center_lat": 22.1855,
        "center_lng": 84.5994
      },
      "geometry": {
        "type": "Polygon",
        "coordinates": [
          [
            [
              84.64341,
              22.18481
            ],
            [
              84.63465,
              22.19691
            ],
            [
              84.62783,
              22.21496
            ],
            [
              84.60939,
              22.22611
            ],
            [
              84.595,
              22.23511
            ],
            [
              84.58502,
              22.20538
            ],
            [
              84.56993,
              22.20753
            ],
            [
              84.56676,
              22.19492
            ],
            [
              84.57602,
              22.17897
            ],
            [
              84.57085,
              22.16697
            ],
            [
              84.58608,
              22.16441
            ],
            [
              84.59487,
              22.16495
            ],
            [
              84.60804,
              22.16155
            ],
            [
              84.61786,
              22.16339
            ],
            [
              84.64134,
              22.16908
            ],
            [
              84.64341,
              22.18481
            ]
          ]
        ]
      }
    },
    {
      "type": "Feature",
      "properties": {
        "block_id": "OR_BIRAMITRAPUR_FOREST",
        "block_name": "Biramitrapur (Forest-fringe)",
        "district": "Sundargarh",
        "state": "Odisha",
        "area_sq_km": 29,
        "center_lat": 22.4075,
        "center_lng": 84.6876
      },
      "geometry": {
        "type": "Polygon",
        "coordinates": [
          [
            [
              84.71406,
              22.40843
            ],
            [
              84.70274,
              22.41745
            ],
            [
              84.70259,
              22.42522
            ],
            [
              84.68743,
              22.42539
            ],
            [
              84.67325,
              22.43931
            ],
            [
              84.66173,
              22.42341
            ],
            [
              84.65533,
              22.41389
            ],
            [
              84.6696,
              22.40398
            ],
            [
              84.65666,
              22.38739
            ],
            [
              84.67783,
              22.38974
            ],
            [
              84.69205,
              22.38735
            ],
            [
              84.70708,
              22.37881
            ],
            [
              84.71219,
              22.39776
            ],
            [
              84.71406,
              22.40843
            ]
          ]
        ]
      }
    },
    {
      "type": "Feature",
      "properties": {
        "block_id": "TG_HYDERABAD_METRO",
        "block_name": "Hyderabad (Metro)",
        "district": "Hyderabad",
        "state": "Telangana",
        "area_sq_km": 625,
        "center_lat": 17.385,
        "center_lng": 78.4867
      },
      "geometry": {
        "type": "Polygon",
        "coordinates": [
          [
            [
              78.65619,
              17.38677
            ],
            [
              78.65694,
              17.4647
            ],
            [
              78.54504,
              17.50573
            ],
            [
              78.49983,
              17.5166
            ],
            [
              78.45211,
              17.45369
            ],
            [
              78.3431,
              17.4573
            ],
            [
              78.32017,
              17.39762
            ],
            [
              78.31354,
              17.32032
            ],
            [
              78.39573,
              17.24277
            ],
            [
              78.47766,
              17.24428
            ],
            [
              78.56189,
              17.28585
            ],
            [
              78.64313,
              17.32518
            ],
            [
              78.65619,
              17.38677
            ]
          ]
        ]
      }
    },
    {
      "type": "Feature",
      "properties": {
        "block_id": "TG_SECUNDERABAD_TWIN",
        "block_name": "Secunderabad (Twin City)",
        "district": "Hyderabad",
        "state": "Telangana",
        "area_sq_km": 20,
        "center_lat": 17.4399,
        "center_lng": 78.498
      },
      "geometry": {
        "type": "Polygon",
        "coordinates": [
          [
            [
              78.52823,
              17.44129
            ],
            [
              78.51999,
              17.45204
            ],
            [
              78.5113,
              17.45528
            ],
            [
              78.50426,
              17.46009
            ],
            [
              78.49296,
              17.45526
            ],
            [
              78.47894,
              17.46594
            ],
            [
              78.47809,
              17.44938
            ],
            [
              78.46674,
              17.44308
            ],
            [
              78.4747,
              17.42989
            ],
            [
              78.47893,
              17.42188
            ],
            [
              78.49267,
              17.41909
            ],
            [
              78.49966,
              17.4268
            ],
            [
              78.51283,
              17.41795
            ],
            [
              78.52061,
              17.42774
            ],
            [
              78.52823,
              17.44129
            ]
          ]
        ]
      }
    },
    {
      "type": "Feature",
      "properties": {
        "block_id": "TG_GHATKESAR_OUTSKIRTS",
        "block_name": "Ghatkesar (Outskirts)",
        "district": "Hyderabad",
        "state": "Telangana",
        "area_sq_km": 20,
        "center_lat": 17.4473,
        "center_lng": 78.6897
      },
      "geometry": {
        "type": "Polygon",
        "coordinates": [
          [
            [
              78.71441,
              17.44561
            ],
            [
              78.70852,
              17.45806
            ],
            [
              78.70462,
              17.47395
            ],
            [
              78.68831,
              17.46076
            ],
            [
              78.67554,
              17.46843
            ],
            [
              78.67448,
              17.45866
            ],
            [
              78.65648,
              17.44743
            ],
            [
              78.66882,
              17.43863
            ],
            [
              78.6737,
              17.4188
            ],
            [
              78.69234,
              17.43046
            ],
            [
              78.70958,
              17.42231
            ],
            [
              78.71596,
              17.42841
            ],
            [
              78.71441,
              17.44561
            ]
          ]
        ]
      }
    },
    {
      "type": "Feature",
      "properties": {
        "block_id": "TG_WARANGAL_CITY",
        "block_name": "Warangal (City)",
        "district": "Warangal",
        "state": "Telangana",
        "area_sq_km": 398,
        "center_lat": 17.9784,
        "center_lng": 79.5941
      },
      "geometry": {
        "type": "Polygon",
        "coordinates": [
          [
            [
              79.69212,
              17.97861
            ],
            [
              79.67578,
              18.01016
            ],
            [
              79.65682,
              18.07646
            ],
            [
              79.60134,
              18.04417
            ],
            [
              79.58517,
              18.03999
            ],
            [
              79.54446,
              18.05362
            ],
            [
              79.53821,
              18.00614
            ],
            [
              79.51201,
              17.97897
            ],
            [
              79.48141,
              17.91831
            ],
            [
              79.53377,
              17.91399
            ],
            [
              79.57207,
              17.8772
            ],
            [
              79.61246,
              17.84975
            ],
            [
              79.67908,
              17.88575
            ],
            [
              79.71166,
              17.90681
            ],
            [
              79.69212,
              17.97861
            ]
          ]
        ]
      }
    },
    {
      "type": "Feature",
      "properties": {
        "block_id": "TG_HANAMKONDA_URBAN",
        "block_name": "Hanamkonda (Urban)",
        "district": "Warangal",
        "state": "Telangana",
        "area_sq_km": 102,
        "center_lat": 18.0174,
        "center_lng": 79.5598
      },
      "geometry": {
        "type": "Polygon",
        "coordinates": [
          [
            [
              79.61359,
              18.01778
            ],
            [
              79.60405,
              18.04583
            ],
            [
              79.58046,
              18.04989
            ],
            [
              79.57268,
              18.07328
            ],
            [
              79.53835,
              18.0724
            ],
            [
              79.53279,
              18.0367
            ],
            [
              79.49717,
              18.03049
            ],
            [
              79.49102,
              17.99167
            ],
            [
              79.51285,
              17.98747
            ],
            [
              79.54934,
              17.98877
            ],
            [
              79.5669,
              17.98455
            ],
            [
              79.59859,
              17.97307
            ],
            [
              79.62238,
              17.98613
            ],
            [
              79.61359,
              18.01778
            ]
          ]
        ]
      }
    },
    {
      "type": "Feature",
      "properties": {
        "block_id": "TG_PARKAL_SEMIRURAL",
        "block_name": "Parkal (Semi-rural Tribal Zone)",
        "district": "Warangal",
        "state": "Telangana",
        "area_sq_km": 24,
        "center_lat": 18.1978,
        "center_lng": 79.7171
      },
      "geometry": {
        "type": "Polygon",
        "coordinates": [
          [
            [
              79.75181,
              18.19275
            ],
            [
              79.74986,
              18.2147
            ],
            [
              79.72576,
              18.21237
            ],
            [
              79.71791,
              18.2337
            ],
            [
              79.70515,
              18.22258
            ],
            [
              79.6966,
              18.20727
            ],
            [
              79.69356,
              18.1945
            ],
            [
              79.69061,
              18.18742
            ],
            [
              79.70039,
              18.17297
            ],
            [
              79.71723,
              18.17369
            ],
            [
              79.73446,
              18.17291
            ],
            [
              79.74166,
              18.17956
            ],
            [
              79.75181,
              18.19275
            ]
          ]
        ]
      }
    },
    {
      "type": "Feature",
      "properties": {
        "block_id": "TG_ADILABAD_HQ",
        "block_name": "Adilabad (HQ)",
        "district": "Adilabad",
        "state": "Telangana",
        "area_sq_km": 25,
        "center_lat": 19.6638,
        "center_lng": 78.532
      },
      "geometry": {
        "type": "Polygon",
        "coordinates": [
          [
            [
              78.56037,
              19.66162
            ],
            [
              78.55781,
              19.67321
            ],
            [
              78.54589,
              19.68043
            ],
            [
              78.53878,
              19.68125
            ],
            [
              78.5224,
              19.69833
            ],
            [
              78.51267,
              19.68856
            ],
            [
              78.50475,
              19.67557
            ],
            [
              78.50561,
              19.66596
            ],
            [
              78.50889,
              19.65513
            ],
            [
              78.50657,
              19.63641
            ],
            [
              78.52238,
              19.63678
            ],
            [
              78.53758,
              19.63404
            ],
            [
              78.54301,
              19.65256
            ],
            [
              78.54947,
              19.65325
            ],
            [
              78.56037,
              19.66162
            ]
          ]
        ]
      }
    },
    {
      "type": "Feature",
      "properties": {
        "block_id": "TG_NIRMAL_TOWN",
        "block_name": "Nirmal (Town)",
        "district": "Adilabad",
        "state": "Telangana",
        "area_sq_km": 24,
        "center_lat": 19.0963,
        "center_lng": 78.343
      },
      "geometry": {
        "type": "Polygon",
        "coordinates": [
          [
            [
              78.36882,
              19.09393
            ],
            [
              78.36641,
              19.10591
            ],
            [
              78.34837,
              19.11069
            ],
            [
              78.33995,
              19.12243
            ],
            [
              78.3262,
              19.11006
            ],
            [
              78.30797,
              19.10367
            ],
            [
              78.31244,
              19.09122
            ],
            [
              78.32298,
              19.07816
            ],
            [
              78.33432,
              19.07059
            ],
            [
              78.35245,
              19.0739
            ],
            [
              78.35934,
              19.08375
            ],
            [
              78.36882,
              19.09393
            ]
          ]
        ]
      }
    },
    {
      "type": "Feature",
      "properties": {
        "block_id": "TG_KAGAZNAGAR_FOREST",
        "block_name": "Kagaznagar (Forest-fringe Tribal Region)",
        "district": "Adilabad",
        "state": "Telangana",
        "area_sq_km": 29,
        "center_lat": 19.828,
        "center_lng": 79.4595
      },
      "geometry": {
        "type": "Polygon",
        "coordinates": [
          [
            [
              79.47729,
              19.82895
            ],
            [
              79.48512,
              19.84524
            ],
            [
              79.47181,
              19.84298
            ],
            [
              79.45612,
              19.85493
            ],
            [
              79.44658,
              19.84666
            ],
            [
              79.42769,
              19.85214
            ],
            [
              79.44222,
              19.8267
            ],
            [
              79.43686,
              19.81505
            ],
            [
              79.45133,
              19.81399
            ],
            [
              79.46514,
              19.79124
            ],
            [
              79.4705,
              19.80744
            ],
            [
              79.48908,
              19.81428
            ],
            [
              79.47729,
              19.82895
            ]
          ]
        ]
      }
    },
    {
      "type": "Feature",
      "properties": {
        "block_id": "TG_KHAMMAM_CITY",
        "block_name": "Khammam (City)",
        "district": "Khammam",
        "state": "Telangana",
        "area_sq_km": 159,
        "center_lat": 17.2473,
        "center_lng": 80.1514
      },
      "geometry": {
        "type": "Polygon",
        "coordinates": [
          [
            [
              80.19235,
              17.25207
            ],
            [
              80.20728,
              17.28514
            ],
            [
              80.1729,
              17.30594
            ],
            [
              80.1534,
              17.32309
            ],
            [
              80.11483,
              17.2934
            ],
            [
              80.06278,
              17.27777
            ],
            [
              80.11029,
              17.23321
            ],
            [
              80.12872,
              17.2161
            ],
            [
              80.14717,
              17.20671
            ],
            [
              80.16771,
              17.19645
            ],
            [
              80.22267,
              17.19971
            ],
            [
              80.19235,
              17.25207
            ]
          ]
        ]
      }
    },
    {
      "type": "Feature",
      "properties": {
        "block_id": "TG_KOTHAGUDEM_COAL",
        "block_name": "Kothagudem (Coal Mining Tribal Belt)",
        "district": "Khammam",
        "state": "Telangana",
        "area_sq_km": 35,
        "center_lat": 17.5525,
        "center_lng": 80.6192
      },
      "geometry": {
        "type": "Polygon",
        "coordinates": [
          [
            [
              80.63849,
              17.55379
            ],
            [
              80.65688,
              17.57221
            ],
            [
              80.63847,
              17.5875
            ],
            [
              80.60957,
              17.59112
            ],
            [
              80.60346,
              17.55972
            ],
            [
              80.58753,
              17.55644
            ],
            [
              80.60538,
              17.54215
            ],
            [
              80.61328,
              17.52505
            ],
            [
              80.62538,
              17.51862
            ],
            [
              80.63638,
              17.53907
            ],
            [
              80.63849,
              17.55379
            ]
          ]
        ]
      }
    },
    {
      "type": "Feature",
      "properties": {
        "block_id": "TG_PALVONCHA_SEMIRURAL",
        "block_name": "Palvoncha (Semi-rural Tribal)",
        "district": "Khammam",
        "state": "Telangana",
        "area_sq_km": 24,
        "center_lat": 17.5801,
        "center_lng": 80.6905
      },
      "geometry": {
        "type": "Polygon",
        "coordinates": [
          [
            [
              80.7232,
              17.58301
            ],
            [
              80.70539,
              17.58678
            ],
            [
              80.70615,
              17.59642
            ],
            [
              80.69198,
              17.60463
            ],
            [
              80.68323,
              17.5928
            ],
            [
              80.67021,
              17.59379
            ],
            [
              80.65863,
              17.58605
            ],
            [
              80.66188,
              17.57159
            ],
            [
              80.66206,
              17.55972
            ],
            [
              80.68157,
              17.56361
            ],
            [
              80.6933,
              17.56164
            ],
            [
              80.70801,
              17.55594
            ],
            [
              80.71016,
              17.57153
            ],
            [
              80.7232,
              17.58301
            ]
          ]
        ]
      }
    },
    {
      "type": "Feature",
      "properties": {
        "block_id": "TG_KARIMNAGAR_CITY",
        "block_name": "Karimnagar (City)",
        "district": "Karimnagar",
        "state": "Telangana",
        "area_sq_km": 50,
        "center_lat": 18.4386,
        "center_lng": 79.1288
      },
      "geometry": {
        "type": "Polygon",
        "coordinates": [
          [
            [
              79.17742,
              18.4398
            ],
            [
              79.14824,
              18.44714
            ],
            [
              79.14162,
              18.46056
            ],
            [
              79.12545,
              18.48148
            ],
            [
              79.10646,
              18.47859
            ],
            [
              79.10162,
              18.45864
            ],
            [
              79.07559,
              18.44159
            ],
            [
              79.10158,
              18.41878
            ],
            [
              79.09947,
              18.40171
            ],
            [
              79.13512,
              18.38973
            ],
            [
              79.14549,
              18.41472
            ],
            [
              79.1572,
              18.41955
            ],
            [
              79.17742,
              18.4398
            ]
          ]
        ]
      }
    },
    {
      "type": "Feature",
      "properties": {
        "block_id": "TG_JAGTIAL_TOWN",
        "block_name": "Jagtial (Town)",
        "district": "Karimnagar",
        "state": "Telangana",
        "area_sq_km": 24,
        "center_lat": 18.7968,
        "center_lng": 78.9138
      },
      "geometry": {
        "type": "Polygon",
        "coordinates": [
          [
            [
              78.9354,
              18.7982
            ],
            [
              78.93075,
              18.80346
            ],
            [
              78.92625,
              18.80861
            ],
            [
              78.92449,
              18.82529
            ],
            [
              78.90926,
              18.81885
            ],
            [
              78.89315,
              18.82302
            ],
            [
              78.88821,
              18.8047
            ],
            [
              78.88736,
              18.79484
            ],
            [
              78.88866,
              18.78692
            ],
            [
              78.89307,
              18.7717
            ],
            [
              78.91072,
              18.77077
            ],
            [
              78.91839,
              18.78045
            ],
            [
              78.93374,
              18.76821
            ],
            [
              78.93681,
              18.78565
            ],
            [
              78.9354,
              18.7982
            ]
          ]
        ]
      }
    },
    {
      "type": "Feature",
      "properties": {
        "block_id": "TG_SIRCILLA_SEMIRURAL",
        "block_name": "Sircilla (Semi-rural)",
        "district": "Karimnagar",
        "state": "Telangana",
        "area_sq_km": 20,
        "center_lat": 18.3872,
        "center_lng": 78.8323
      },
      "geometry": {
        "type": "Polygon",
        "coordinates": [
          [
            [
              78.86009,
              18.38976
            ],
            [
              78.85212,
              18.39463
            ],
            [
              78.85038,
              18.40783
            ],
            [
              78.84101,
              18.41054
            ],
            [
              78.82529,
              18.40567
            ],
            [
              78.81137,
              18.40941
            ],
            [
              78.81902,
              18.39522
            ],
            [
              78.80815,
              18.38739
            ],
            [
              78.81391,
              18.37697
            ],
            [
              78.82165,
              18.37745
            ],
            [
              78.82761,
              18.37234
            ],
            [
              78.83413,
              18.36841
            ],
            [
              78.85067,
              18.36531
            ],
            [
              78.84759,
              18.37972
            ],
            [
              78.86009,
              18.38976
            ]
          ]
        ]
      }
    },
    {
      "type": "Feature",
      "properties": {
        "block_id": "TR_AGARTALA_CAPITAL",
        "block_name": "Agartala (Capital City)",
        "district": "West Tripura",
        "state": "Tripura",
        "area_sq_km": 76,
        "center_lat": 23.8315,
        "center_lng": 91.2868
      },
      "geometry": {
        "type": "Polygon",
        "coordinates": [
          [
            [
              91.32982,
              23.83513
            ],
            [
              91.34773,
              23.8541
            ],
            [
              91.31615,
              23.85746
            ],
            [
              91.29843,
              23.86397
            ],
            [
              91.2773,
              23.8583
            ],
            [
              91.24681,
              23.86904
            ],
            [
              91.23045,
              23.86261
            ],
            [
              91.24775,
              23.82936
            ],
            [
              91.25848,
              23.81819
            ],
            [
              91.267,
              23.8097
            ],
            [
              91.27698,
              23.78243
            ],
            [
              91.30504,
              23.77297
            ],
            [
              91.30828,
              23.80774
            ],
            [
              91.31409,
              23.82091
            ],
            [
              91.32982,
              23.83513
            ]
          ]
        ]
      }
    },
    {
      "type": "Feature",
      "properties": {
        "block_id": "TR_BISHALGARH_TOWN",
        "block_name": "Bishalgarh (Town)",
        "district": "West Tripura",
        "state": "Tripura",
        "area_sq_km": 14,
        "center_lat": 23.6826,
        "center_lng": 91.4626
      },
      "geometry": {
        "type": "Polygon",
        "coordinates": [
          [
            [
              91.47757,
              23.68355
            ],
            [
              91.48783,
              23.69341
            ],
            [
              91.47942,
              23.70073
            ],
            [
              91.46773,
              23.70066
            ],
            [
              91.46042,
              23.70118
            ],
            [
              91.45102,
              23.70024
            ],
            [
              91.44796,
              23.69368
            ],
            [
              91.44074,
              23.68521
            ],
            [
              91.43755,
              23.67741
            ],
            [
              91.44799,
              23.67209
            ],
            [
              91.44841,
              23.65975
            ],
            [
              91.46145,
              23.66795
            ],
            [
              91.46818,
              23.65962
            ],
            [
              91.478,
              23.6692
            ],
            [
              91.48225,
              23.67494
            ],
            [
              91.47757,
              23.68355
            ]
          ]
        ]
      }
    },
    {
      "type": "Feature",
      "properties": {
        "block_id": "TR_JIRANIA_SEMIRURAL",
        "block_name": "Jirania (Semi-rural Tribal)",
        "district": "West Tripura",
        "state": "Tripura",
        "area_sq_km": 24,
        "center_lat": 23.8022,
        "center_lng": 91.3418
      },
      "geometry": {
        "type": "Polygon",
        "coordinates": [
          [
            [
              91.37109,
              23.80319
            ],
            [
              91.36607,
              23.81531
            ],
            [
              91.3561,
              23.83531
            ],
            [
              91.33789,
              23.82112
            ],
            [
              91.31743,
              23.82463
            ],
            [
              91.32051,
              23.80764
            ],
            [
              91.31268,
              23.79625
            ],
            [
              91.32518,
              23.78657
            ],
            [
              91.33453,
              23.77811
            ],
            [
              91.3593,
              23.77309
            ],
            [
              91.35877,
              23.7946
            ],
            [
              91.37109,
              23.80319
            ]
          ]
        ]
      }
    },
    {
      "type": "Feature",
      "properties": {
        "block_id": "TR_DHARMANAGAR_TOWN",
        "block_name": "Dharmanagar (Town)",
        "district": "North Tripura",
        "state": "Tripura",
        "area_sq_km": 23,
        "center_lat": 24.3778,
        "center_lng": 92.1635
      },
      "geometry": {
        "type": "Polygon",
        "coordinates": [
          [
            [
              92.19979,
              24.37433
            ],
            [
              92.17887,
              24.38603
            ],
            [
              92.18009,
              24.39453
            ],
            [
              92.17565,
              24.4052
            ],
            [
              92.15979,
              24.40621
            ],
            [
              92.15114,
              24.39506
            ],
            [
              92.13298,
              24.399
            ],
            [
              92.13715,
              24.386
            ],
            [
              92.12759,
              24.37199
            ],
            [
              92.1441,
              24.36694
            ],
            [
              92.14742,
              24.34792
            ],
            [
              92.16382,
              24.36342
            ],
            [
              92.17517,
              24.35302
            ],
            [
              92.19244,
              24.35441
            ],
            [
              92.191,
              24.36867
            ],
            [
              92.19979,
              24.37433
            ]
          ]
        ]
      }
    },
    {
      "type": "Feature",
      "properties": {
        "block_id": "TR_PANISAGAR_SEMIRURAL",
        "block_name": "Panisagar (Semi-rural)",
        "district": "North Tripura",
        "state": "Tripura",
        "area_sq_km": 23,
        "center_lat": 24.2396,
        "center_lng": 92.0196
      },
      "geometry": {
        "type": "Polygon",
        "coordinates": [
          [
            [
              92.04312,
              24.24136
            ],
            [
              92.0348,
              24.24442
            ],
            [
              92.03301,
              24.25568
            ],
            [
              92.02337,
              24.2555
            ],
            [
              92.01784,
              24.25778
            ],
            [
              92.01105,
              24.25501
            ],
            [
              92.00824,
              24.24904
            ],
            [
              92.00197,
              24.24503
            ],
            [
              91.98831,
              24.23341
            ],
            [
              92.00683,
              24.23121
            ],
            [
              92.00914,
              24.21897
            ],
            [
              92.01742,
              24.22478
            ],
            [
              92.02483,
              24.2235
            ],
            [
              92.03624,
              24.21865
            ],
            [
              92.04764,
              24.22866
            ],
            [
              92.04312,
              24.24136
            ]
          ]
        ]
      }
    },
    {
      "type": "Feature",
      "properties": {
        "block_id": "TR_KAILASHAHAR_HQ",
        "block_name": "Kailashahar (Tribal HQ)",
        "district": "North Tripura",
        "state": "Tripura",
        "area_sq_km": 24,
        "center_lat": 24.3317,
        "center_lng": 92.0087
      },
      "geometry": {
        "type": "Polygon",
        "coordinates": [
          [
            [
              92.0355,
              24.33505
            ],
            [
              92.03769,
              24.34735
            ],
            [
              92.01809,
              24.34462
            ],
            [
              92.00043,
              24.36662
            ],
            [
              91.98772,
              24.35316
            ],
            [
              91.97363,
              24.34379
            ],
            [
              91.9899,
              24.32566
            ],
            [
              91.99409,
              24.31666
            ],
            [
              92.00681,
              24.31678
            ],
            [
              92.02446,
              24.30993
            ],
            [
              92.03612,
              24.31466
            ],
            [
              92.0355,
              24.33505
            ]
          ]
        ]
      }
    },
    {
      "type": "Feature",
      "properties": {
        "block_id": "TR_AMBASSA_HQ",
        "block_name": "Ambassa (HQ)",
        "district": "Dhalai",
        "state": "Tripura",
        "area_sq_km": 19,
        "center_lat": 24.0197,
        "center_lng": 91.8509
      },
      "geometry": {
        "type": "Polygon",
        "coordinates": [
          [
            [
              91.87318,
              24.02005
            ],
            [
              91.86871,
              24.02776
            ],
            [
              91.8648,
              24.0347
            ],
            [
              91.85092,
              24.04235
            ],
            [
              91.8405,
              24.03809
            ],
            [
              91.82885,
              24.03604
            ],
            [
              91.83435,
              24.02536
            ],
            [
              91.82086,
              24.01019
            ],
            [
              91.82806,
              23.99778
            ],
            [
              91.8457,
              23.99948
            ],
            [
              91.85512,
              24.00455
            ],
            [
              91.86574,
              23.99277
            ],
            [
              91.87638,
              24.00398
            ],
            [
              91.87318,
              24.02005
            ]
          ]
        ]
      }
    },
    {
      "type": "Feature",
      "properties": {
        "block_id": "TR_GANDACHERRA_FOREST",
        "block_name": "Gandacherra (Forest-fringe Tribal)",
        "district": "Dhalai",
        "state": "Tripura",
        "area_sq_km": 14,
        "center_lat": 23.6491,
        "center_lng": 92.023
      },
      "geometry": {
        "type": "Polygon",
        "coordinates": [
          [
            [
              92.03734,
              23.64917
            ],
            [
              92.04019,
              23.65959
            ],
            [
              92.0311,
              23.6686
            ],
            [
              92.0199,
              23.66711
            ],
            [
              91.99865,
              23.66327
            ],
            [
              92.00373,
              23.65078
            ],
            [
              92.01042,
              23.6382
            ],
            [
              92.02049,
              23.63841
            ],
            [
              92.02973,
              23.62498
            ],
            [
              92.04025,
              23.63591
            ],
            [
              92.03734,
              23.64917
            ]
          ]
        ]
      }
    },
    {
      "type": "Feature",
      "properties": {
        "block_id": "TR_KAMALPUR_SEMIRURAL",
        "block_name": "Kamalpur (Semi-rural)",
        "district": "Dhalai",
        "state": "Tripura",
        "area_sq_km": 15,
        "center_lat": 24.1802,
        "center_lng": 91.8387
      },
      "geometry": {
        "type": "Polygon",
        "coordinates": [
          [
            [
              91.86172,
              24.17768
            ],
            [
              91.84861,
              24.18674
            ],
            [
              91.85701,
              24.20308
            ],
            [
              91.84361,
              24.20565
            ],
            [
              91.82886,
              24.19721
            ],
            [
              91.81391,
              24.19508
            ],
            [
              91.8122,
              24.18519
            ],
            [
              91.82087,
              24.17679
            ],
            [
              91.81414,
              24.16462
            ],
            [
              91.8337,
              24.16583
            ],
            [
              91.8436,
              24.15967
            ],
            [
              91.85436,
              24.16337
            ],
            [
              91.86638,
              24.16871
            ],
            [
              91.86172,
              24.17768
            ]
          ]
        ]
      }
    },
    {
      "type": "Feature",
      "properties": {
        "block_id": "TR_BELONIA_TOWN",
        "block_name": "Belonia (Town)",
        "district": "South Tripura",
        "state": "Tripura",
        "area_sq_km": 17,
        "center_lat": 23.2512,
        "center_lng": 91.4511
      },
      "geometry": {
        "type": "Polygon",
        "coordinates": [
          [
            [
              91.48045,
              23.25438
            ],
            [
              91.46355,
              23.26045
            ],
            [
              91.45976,
              23.26527
            ],
            [
              91.45226,
              23.27255
            ],
            [
              91.44035,
              23.26462
            ],
            [
              91.43406,
              23.2597
            ],
            [
              91.41843,
              23.25409
            ],
            [
              91.43168,
              23.243
            ],
            [
              91.44225,
              23.23158
            ],
            [
              91.44813,
              23.23326
            ],
            [
              91.46264,
              23.22801
            ],
            [
              91.47899,
              23.23723
            ],
            [
              91.48045,
              23.25438
            ]
          ]
        ]
      }
    },
    {
      "type": "Feature",
      "properties": {
        "block_id": "TR_SABROOM_BORDER",
        "block_name": "Sabroom (Border Tribal Belt)",
        "district": "South Tripura",
        "state": "Tripura",
        "area_sq_km": 12,
        "center_lat": 22.9979,
        "center_lng": 91.7132
      },
      "geometry": {
        "type": "Polygon",
        "coordinates": [
          [
            [
              91.73693,
              22.997
            ],
            [
              91.7234,
              23.00096
            ],
            [
              91.72274,
              23.00832
            ],
            [
              91.71622,
              23.01079
            ],
            [
              91.71014,
              23.00894
            ],
            [
              91.70224,
              23.01087
            ],
            [
              91.70047,
              23.00502
            ],
            [
              91.69645,
              22.99971
            ],
            [
              91.69841,
              22.99174
            ],
            [
              91.70154,
              22.98322
            ],
            [
              91.7095,
              22.97662
            ],
            [
              91.71538,
              22.98589
            ],
            [
              91.72423,
              22.98751
            ],
            [
              91.7366,
              22.98633
            ],
            [
              91.73693,
              22.997
            ]
          ]
        ]
      }
    },
    {
      "type": "Feature",
      "properties": {
        "block_id": "TR_SANTIRBAZAR_SEMIURBAN",
        "block_name": "Santirbazar (Semi-urban)",
        "district": "South Tripura",
        "state": "Tripura",
        "area_sq_km": 14,
        "center_lat": 23.3602,
        "center_lng": 91.5278
      },
      "geometry": {
        "type": "Polygon",
        "coordinates": [
          [
            [
              91.54618,
              23.35989
            ],
            [
              91.54416,
              23.36606
            ],
            [
              91.53948,
              23.37273
            ],
            [
              91.53043,
              23.37186
            ],
            [
              91.5251,
              23.37796
            ],
            [
              91.51114,
              23.37874
            ],
            [
              91.51622,
              23.36609
            ],
            [
              91.51511,
              23.36061
            ],
            [
              91.50563,
              23.35318
            ],
            [
              91.51976,
              23.35194
            ],
            [
              91.52214,
              23.33881
            ],
            [
              91.53334,
              23.33722
            ],
            [
              91.54236,
              23.33847
            ],
            [
              91.54795,
              23.35194
            ],
            [
              91.54618,
              23.35989
            ]
          ]
        ]
      }
    }
  ]
}